NORAD_CAT_ID,OBJECT_NAME,OBJECT_TYPE,EPOCH,MEAN_MOTION,ECCENTRICITY,INCLINATION,RA_OF_ASC_NODE,ARG_OF_PERICENTER,MEAN_ANOMALY,BSTAR,MEAN_MOTION_DOT,MEAN_MOTION_DDOT,TLE_LINE0,TLE_LINE1,TLE_LINE2,SEMIMAJOR_AXIS,PERIOD,APOGEE,PERIGEE,DECAYED
55771.0,STARLINK-5591,PAYLOAD,2023-12-20 11:47:19,14.98328755,0.0002894,70.0007,107.242,266.1004,93.9824,-0.0001169,-1.487e-05,0.0,0 STARLINK-5591,1 55771U 23028AG  23354.49120232 -.00001487  00000-0 -11690-3 0  9992,2 55771  70.0007 107.2420 0002894 266.1004  93.9824 14.98328755 45173,6950.197,96.107,574.073,570.05,0.0
55771.0,STARLINK-5591,PAYLOAD,2023-12-20 13:23:27,14.98328237,0.0002927,70.0006,107.0737,265.4826,94.5999,-0.00012255,-1.555e-05,0.0,0 STARLINK-5591,1 55771U 23028AG  23354.55796279 -.00001555  00000-0 -12255-3 0  9993,2 55771  70.0006 107.0737 0002927 265.4826  94.5999 14.98328237 45188,6950.198,96.107,574.098,570.029,0.0
55771.0,STARLINK-5591,PAYLOAD,2023-12-20 18:11:51,14.98333954,0.000304,70.0003,106.5692,261.0291,99.0524,-7.2911e-05,-9.63e-06,0.0,0 STARLINK-5591,1 55771U 23028AG  23354.75823645 -.00000963  00000-0 -72911-4 0  9991,2 55771  70.0003 106.5692 0003040 261.0291  99.0524 14.98333954 45214,6950.181,96.107,574.159,569.933,0.0
55771.0,STARLINK-5591,PAYLOAD,2023-12-21 11:49:20,14.9832576,0.0002567,70.0006,104.7168,248.3566,111.732,9.3994e-05,1.029e-05,0.0,0 STARLINK-5591,1 55771U 23028AG  23355.49259809  .00001029  00000-0  93994-4 0  9994,2 55771  70.0006 104.7168 0002567 248.3566 111.7320 14.98325760 45325,6950.206,96.107,573.855,570.287,0.0
55771.0,STARLINK-5591,PAYLOAD,2023-12-21 15:01:36,14.98333068,0.0002489,70.0006,104.3803,249.5031,110.5861,2.5723e-05,2.14e-06,0.0,0 STARLINK-5591,1 55771U 23028AG  23355.62611563  .00000214  00000-0  25723-4 0  9998,2 55771  70.0006 104.3803 0002489 249.5031 110.5861 14.98333068 45349,6950.183,96.107,573.778,570.319,0.0
55771.0,STARLINK-5591,PAYLOAD,2023-12-22 11:51:21,14.98327082,0.000273,70.0009,102.1928,255.9718,104.1138,1.4073e-05,7.5e-07,0.0,0 STARLINK-5591,1 55771U 23028AG  23356.49400070  .00000075  00000-0  14073-4 0  9994,2 55771  70.0009 102.1928 0002730 255.9718 104.1138 14.98327082 45477,6950.202,96.107,573.964,570.17,0.0
55771.0,STARLINK-5591,PAYLOAD,2023-12-22 13:27:29,14.98326855,0.0002947,70.0003,102.0232,263.6253,96.457,3.6208e-05,3.39e-06,0.0,0 STARLINK-5591,1 55771U 23028AG  23356.56076054  .00000339  00000-0  36208-4 0  9990,2 55771  70.0003 102.0232 0002947 263.6253  96.4570 14.98326855 45489,6950.203,96.107,574.116,570.019,0.0
55771.0,STARLINK-5591,PAYLOAD,2023-12-22 16:39:45,14.983282,0.0002842,70.0004,101.6865,258.8315,101.2525,4.1084e-05,3.97e-06,0.0,0 STARLINK-5591,1 55771U 23028AG  23356.69427949  .00000397  00000-0  41084-4 0  9999,2 55771  70.0004 101.6865 0002842 258.8315 101.2525 14.98328200 45500,6950.198,96.107,574.039,570.088,0.0
55771.0,STARLINK-5591,PAYLOAD,2023-12-23 11:53:22,14.98330281,0.0002773,70.0005,99.6664,259.6024,100.4823,9.4474e-06,2e-07,0.0,0 STARLINK-5591,1 55771U 23028AG  23357.49539851  .00000020  00000-0  94474-5 0  9999,2 55771  70.0005  99.6664 0002773 259.6024 100.4823 14.98330281 45620,6950.192,96.107,573.984,570.13,0.0
55771.0,STARLINK-5591,PAYLOAD,2023-12-23 13:29:30,14.98330477,0.0002752,70.0005,99.4982,258.3865,101.6985,1.1186e-05,4.1e-07,0.0,0 STARLINK-5591,1 55771U 23028AG  23357.56215827  .00000041  00000-0  11186-4 0  9992,2 55771  70.0005  99.4982 0002752 258.3865 101.6985 14.98330477 45637,6950.191,96.107,573.969,570.144,0.0
55771.0,STARLINK-5591,PAYLOAD,2023-12-23 16:41:46,14.98333184,0.0002752,70.0007,99.1623,260.8092,99.2756,3.9803e-05,3.82e-06,0.0,0 STARLINK-5591,1 55771U 23028AG  23357.69567576  .00000382  00000-0  39803-4 0  9991,2 55771  70.0007  99.1623 0002752 260.8092  99.2756 14.98333184 45656,6950.183,96.107,573.961,570.135,0.0
55771.0,STARLINK-5591,PAYLOAD,2023-12-24 11:55:23,14.98329632,0.0002582,70.0011,97.1425,261.7945,98.2921,4.5815e-05,4.54e-06,0.0,0 STARLINK-5591,1 55771U 23028AG  23358.49679722  .00000454  00000-0  45815-4 0  9997,2 55771  70.0011  97.1425 0002582 261.7945  98.2921 14.98329632 45776,6950.194,96.107,573.854,570.264,0.0
55771.0,STARLINK-5591,PAYLOAD,2023-12-24 13:31:31,14.98330921,0.0002615,70.0007,96.9734,261.5084,98.5778,4.2957e-05,4.2e-06,0.0,0 STARLINK-5591,1 55771U 23028AG  23358.56355636  .00000420  00000-0  42957-4 0  9997,2 55771  70.0007  96.9734 0002615 261.5084  98.5778 14.98330921 45787,6950.19,96.107,573.873,570.238,0.0
55771.0,STARLINK-5591,PAYLOAD,2023-12-24 16:43:46,14.98340299,0.0003613,70.0,96.6355,251.8868,108.1897,0.00011722,1.306e-05,0.0,0 STARLINK-5591,1 55771U 23028AG  23358.69706455  .00001306  00000-0  11722-3 0  9999,2 55771  70.0000  96.6355 0003613 251.8868 108.1897 14.98340299 45809,6950.161,96.106,574.537,569.515,0.0
55771.0,STARLINK-5591,PAYLOAD,2023-12-25 11:57:23,14.9833422,0.0002751,70.0004,94.6167,261.8106,98.2741,-9.2017e-06,-2.03e-06,0.0,0 STARLINK-5591,1 55771U 23028AG  23359.49819286 -.00000203  00000-0 -92017-5 0  9990,2 55771  70.0004  94.6167 0002751 261.8106  98.2741 14.98334220 45927,6950.18,96.107,573.957,570.133,0.0
55771.0,STARLINK-5591,PAYLOAD,2023-12-25 13:33:31,14.98333842,0.0002691,70.0005,94.4489,259.8307,100.2549,8.5493e-06,9e-08,0.0,0 STARLINK-5591,1 55771U 23028AG  23359.56495233  .00000009  00000-0  85493-5 0  9992,2 55771  70.0005  94.4489 0002691 259.8307 100.2549 14.98333842 45936,6950.181,96.107,573.916,570.176,0.0
55771.0,STARLINK-5591,PAYLOAD,2023-12-25 16:45:47,14.98336373,0.0002718,70.0004,94.1126,261.2186,98.8665,3.3033e-05,3.01e-06,0.0,0 STARLINK-5591,1 55771U 23028AG  23359.69846960  .00000301  00000-0  33033-4 0  9990,2 55771  70.0004  94.1126 0002718 261.2186  98.8665 14.98336373 45957,6950.173,96.107,573.927,570.149,0.0
55771.0,STARLINK-5591,PAYLOAD,2023-12-26 10:23:17,14.98326727,0.0002922,70.0002,92.2602,271.5485,88.5339,-6.0117e-05,-8.1e-06,0.0,0 STARLINK-5591,1 55771U 23028AG  23360.43283979 -.00000810  00000-0 -60117-4 0  9999,2 55771  70.0002  92.2602 0002922 271.5485  88.5339 14.98326727 46065,6950.203,96.107,574.099,570.037,0.0
55771.0,STARLINK-5591,PAYLOAD,2023-12-26 13:35:33,14.9832585,0.0002454,70.0011,91.9241,259.1946,100.8937,-5.9072e-05,-7.98e-06,0.0,0 STARLINK-5591,1 55771U 23028AG  23360.56635910 -.00000798  00000-0 -59072-4 0  9992,2 55771  70.0011  91.9241 0002454 259.1946 100.8937 14.98325850 46084,6950.206,96.107,573.776,570.365,0.0
55771.0,STARLINK-5591,PAYLOAD,2023-12-26 16:47:48,14.98363069,0.0002316,70.0005,91.5871,257.5184,102.5716,-0.00058951,-7.125e-05,0.0,0 STARLINK-5591,1 55771U 23028AG  23360.69986823 -.00007125  00000-0 -58951-3 0  9993,2 55771  70.0005  91.5871 0002316 257.5184 102.5716 14.98363069 46106,6950.091,96.105,573.565,570.346,0.0
55771.0,STARLINK-5591,PAYLOAD,2023-12-27 12:01:26,14.98328687,0.0002669,70.0005,89.5675,266.6953,93.3901,-2.3849e-05,-3.77e-06,0.0,0 STARLINK-5591,1 55771U 23028AG  23361.50099659 -.00000377  00000-0 -23849-4 0  9997,2 55771  70.0005  89.5675 0002669 266.6953  93.3901 14.98328687 46224,6950.197,96.107,573.917,570.207,0.0
55771.0,STARLINK-5591,PAYLOAD,2023-12-27 13:37:34,14.98330159,0.0002474,70.0005,89.3993,258.6352,101.453,1.9757e-06,-6.9e-07,0.0,0 STARLINK-5591,1 55771U 23028AG  23361.56775499 -.00000069  00000-0  19757-5 0  9997,2 55771  70.0005  89.3993 0002474 258.6352 101.4530 14.98330159 46230,6950.192,96.107,573.777,570.338,0.0
55771.0,STARLINK-5591,PAYLOAD,2023-12-27 16:49:49,14.98332191,0.000246,70.0005,89.0623,256.1247,103.9639,3.148e-05,2.83e-06,0.0,0 STARLINK-5591,1 55771U 23028AG  23361.70127241  .00000283  00000-0  31480-4 0  9992,2 55771  70.0005  89.0623 0002460 256.1247 103.9639 14.98332191 46255,6950.186,96.107,573.761,570.341,0.0
55771.0,STARLINK-5591,PAYLOAD,2023-12-28 12:03:27,14.9832329,0.00025,70.0009,87.0428,255.4825,104.6057,2.2168e-05,1.72e-06,0.0,0 STARLINK-5591,1 55771U 23028AG  23362.50239918  .00000172  00000-0  22168-4 0  9996,2 55771  70.0009  87.0428 0002500 255.4825 104.6057 14.98323290 46374,6950.214,96.107,573.816,570.341,0.0
55771.0,STARLINK-5591,PAYLOAD,2023-12-28 13:39:35,14.98323153,0.000251,70.0009,86.8747,256.5994,103.4886,2.5563e-05,2.12e-06,0.0,0 STARLINK-5591,1 55771U 23028AG  23362.56915941  .00000212  00000-0  25563-4 0  9996,2 55771  70.0009  86.8747 0002510 256.5994 103.4886 14.98323153 46381,6950.214,96.107,573.824,570.335,0.0
55771.0,STARLINK-5591,PAYLOAD,2023-12-28 15:15:43,14.98323568,0.0002468,70.001,86.7064,253.9152,106.1735,3.4907e-05,3.24e-06,0.0,0 STARLINK-5591,1 55771U 23028AG  23362.63591906  .00000324  00000-0  34907-4 0  9991,2 55771  70.0010  86.7064 0002468 253.9152 106.1735 14.98323568 46397,6950.213,96.107,573.793,570.362,0.0
55771.0,STARLINK-5591,PAYLOAD,2023-12-29 12:05:28,14.98326949,0.0002602,70.0011,84.5182,254.8782,105.2089,3.5283e-05,3.28e-06,0.0,0 STARLINK-5591,1 55771U 23028AG  23363.50379744  .00000328  00000-0  35283-4 0  9994,2 55771  70.0011  84.5182 0002602 254.8782 105.2089 14.98326949 46527,6950.202,96.107,573.876,570.259,0.0
55771.0,STARLINK-5591,PAYLOAD,2023-12-29 13:41:36,14.98327936,0.000259,70.0012,84.3502,253.8263,106.2611,4.3769e-05,4.29e-06,0.0,0 STARLINK-5591,1 55771U 23028AG  23363.57055656  .00000429  00000-0  43769-4 0  9994,2 55771  70.0012  84.3502 0002590 253.8263 106.2611 14.98327936 46531,6950.199,96.107,573.864,570.264,0.0
55771.0,STARLINK-5591,PAYLOAD,2023-12-29 15:17:44,14.98327599,0.0002627,70.0011,84.1816,256.2592,103.8275,4.6869e-05,4.66e-06,0.0,0 STARLINK-5591,1 55771U 23028AG  23363.63731682  .00000466  00000-0  46869-4 0  9996,2 55771  70.0011  84.1816 0002627 256.2592 103.8275 14.98327599 46544,6950.2,96.107,573.891,570.239,0.0
55771.0,STARLINK-5591,PAYLOAD,2023-12-30 04:06:48,14.98332362,0.0002776,70.0006,82.8346,260.9051,99.1794,9.1166e-05,9.95e-06,0.0,0 STARLINK-5591,1 55771U 23028AG  23364.17139165  .00000995  00000-0  91166-4 0  9991,2 55771  70.0006  82.8346 0002776 260.9051  99.1794 14.98332362 46624,6950.186,96.107,573.98,570.121,0.0
